SWAS                    
1 25560U 98071A   26068.53487068  .00004636  00000+0  29986-3 0  9991
2 25560  69.8952 124.3662 0004099  14.3215 345.8065 15.08888192482231
STARLINK-5237           
1 54196U 22141AR  26067.98833749 -.00000613  00000+0 -20421-4 0  9991
2 54196  53.2195 357.1519 0001298 106.0340 254.0795 15.08834766185898
